[{"OBJECT_NAME":"STARLINK-36638","OBJECT_ID":"2026-018F","EPOCH":"2026-03-09T22:00:01.999584","MEAN_MOTION":15.62498601,"ECCENTRICITY":0.00018934,"INCLINATION":97.284,"RA_OF_ASC_NODE":134.79,"ARG_OF_PERICENTER":66.192,"MEAN_ANOMALY":51.2719,"EPHEMERIS_TYPE":0,"CLASSIFICATION_TYPE":"U","NORAD_CAT_ID":67594,"ELEMENT_SET_NO":999,"REV_AT_EPOCH":604,"BSTAR":-0.02483464,"MEAN_MOTION_DOT":-0.01946545,"MEAN_MOTION_DDOT":0},{"OBJECT_NAME":"OBJECT B","OBJECT_ID":"2022-158B","EPOCH":"2026-03-09T22:41:40.741152","MEAN_MOTION":15.49759097,"ECCENTRICITY":0.0010727,"INCLINATION":97.4774,"RA_OF_ASC_NODE":189.7942,"ARG_OF_PERICENTER":321.2118,"MEAN_ANOMALY":38.8362,"EPHEMERIS_TYPE":0,"CLASSIFICATION_TYPE":"U","NORAD_CAT_ID":54362,"ELEMENT_SET_NO":999,"REV_AT_EPOCH":18336,"BSTAR":0.0004299082,"MEAN_MOTION_DOT":0.00023884,"MEAN_MOTION_DDOT":0}]
